[{"OBJECT_NAME":"STARLINK-34104","OBJECT_ID":"2025-110G","EPOCH":"2026-02-12T07:12:50.499072","MEAN_MOTION":15.30217275,"ECCENTRICITY":0.0001764,"INCLINATION":53.1585,"RA_OF_ASC_NODE":144.8159,"ARG_OF_PERICENTER":125.9892,"MEAN_ANOMALY":234.1273,"EPHEMERIS_TYPE":0,"CLASSIFICATION_TYPE":"U","NORAD_CAT_ID":64102,"ELEMENT_SET_NO":999,"REV_AT_EPOCH":4199,"BSTAR":0.001123425,"MEAN_MOTION_DOT":0.0003308,"MEAN_MOTION_DDOT":0},{"OBJECT_NAME":"STARLINK-34179","OBJECT_ID":"2025-110H","EPOCH":"2026-02-11T14:24:05.666976","MEAN_MOTION":15.30195704,"ECCENTRICITY":0.00011394,"INCLINATION":53.1589,"RA_OF_ASC_NODE":148.2616,"ARG_OF_PERICENTER":83.0129,"MEAN_ANOMALY":277.1001,"EPHEMERIS_TYPE":0,"CLASSIFICATION_TYPE":"U","NORAD_CAT_ID":64103,"ELEMENT_SET_NO":999,"REV_AT_EPOCH":4188,"BSTAR":0.0011981567,"MEAN_MOTION_DOT":0.00035291,"MEAN_MOTION_DDOT":0},{"OBJECT_NAME":"STARLINK-34176","OBJECT_ID":"2025-110J","EPOCH":"2026-02-11T12:40:56.085024","MEAN_MOTION":15.30244587,"ECCENTRICITY":0.00011536,"INCLINATION":53.1587,"RA_OF_ASC_NODE":148.5291,"ARG_OF_PERICENTER":111.5684,"MEAN_ANOMALY":248.544,"EPHEMERIS_TYPE":0,"CLASSIFICATION_TYPE":"U","NORAD_CAT_ID":64104,"ELEMENT_SET_NO":999,"REV_AT_EPOCH":4187,"BSTAR":0.0010685313,"MEAN_MOTION_DOT":0.00031465,"MEAN_MOTION_DDOT":0},{"OBJECT_NAME":"STARLINK-33949","OBJECT_ID":"2025-110K","EPOCH":"2026-02-12T07:25:00.245568","MEAN_MOTION":15.30209354,"ECCENTRICITY":0.00010854,"INCLINATION":53.1566,"RA_OF_ASC_NODE":144.8644,"ARG_OF_PERICENTER":88.2875,"MEAN_ANOMALY":271.825,"EPHEMERIS_TYPE":0,"CLASSIFICATION_TYPE":"U","NORAD_CAT_ID":64105,"ELEMENT_SET_NO":999,"REV_AT_EPOCH":4199,"BSTAR":0.00087884876,"MEAN_MOTION_DOT":0.00025768,"MEAN_MOTION_DDOT":0},{"OBJECT_NAME":"STARLINK-33970","OBJECT_ID":"2025-110L","EPOCH":"2026-02-12T07:11:19.502592","MEAN_MOTION":15.30213021,"ECCENTRICITY":0.00014943,"INCLINATION":53.1572,"RA_OF_ASC_NODE":144.8042,"ARG_OF_PERICENTER":123.8065,"MEAN_ANOMALY":236.3078,"EPHEMERIS_TYPE":0,"CLASSIFICATION_TYPE":"U","NORAD_CAT_ID":64106,"ELEMENT_SET_NO":999,"REV_AT_EPOCH":4199,"BSTAR":0.0012521592,"MEAN_MOTION_DOT":0.00036926,"MEAN_MOTION_DDOT":0},{"OBJECT_NAME":"STARLINK-33912","OBJECT_ID":"2025-110M","EPOCH":"2026-02-12T07:05:14.750304","MEAN_MOTION":15.30222389,"ECCENTRICITY":0.00015876,"INCLINATION":53.1576,"RA_OF_ASC_NODE":144.7804,"ARG_OF_PERICENTER":110.7816,"MEAN_ANOMALY":249.3355,"EPHEMERIS_TYPE":0,"CLASSIFICATION_TYPE":"U","NORAD_CAT_ID":64107,"ELEMENT_SET_NO":999,"REV_AT_EPOCH":4199,"BSTAR":0.0012174654,"MEAN_MOTION_DOT":0.00035898,"MEAN_MOTION_DDOT":0},{"OBJECT_NAME":"STARLINK-34156","OBJECT_ID":"2025-110N","EPOCH":"2026-02-12T06:51:32.555808","MEAN_MOTION":15.30271602,"ECCENTRICITY":0.00012391,"INCLINATION":53.1578,"RA_OF_ASC_NODE":144.7174,"ARG_OF_PERICENTER":98.6862,"MEAN_ANOMALY":261.428,"EPHEMERIS_TYPE":0,"CLASSIFICATION_TYPE":"U","NORAD_CAT_ID":64108,"ELEMENT_SET_NO":999,"REV_AT_EPOCH":4199,"BSTAR":0.0017783286,"MEAN_MOTION_DOT":0.00052802,"MEAN_MOTION_DDOT":0},{"OBJECT_NAME":"STARLINK-34124","OBJECT_ID":"2025-110P","EPOCH":"2026-02-12T07:00:43.085376","MEAN_MOTION":15.30198454,"ECCENTRICITY":0.00011407,"INCLINATION":53.1581,"RA_OF_ASC_NODE":144.7588,"ARG_OF_PERICENTER":73.8299,"MEAN_ANOMALY":286.2827,"EPHEMERIS_TYPE":0,"CLASSIFICATION_TYPE":"U","NORAD_CAT_ID":64109,"ELEMENT_SET_NO":999,"REV_AT_EPOCH":4199,"BSTAR":0.0011246249,"MEAN_MOTION_DOT":0.00033096,"MEAN_MOTION_DDOT":0},{"OBJECT_NAME":"STARLINK-34145","OBJECT_ID":"2025-110Q","EPOCH":"2026-02-12T07:15:53.013024","MEAN_MOTION":15.30218602,"ECCENTRICITY":0.00012593,"INCLINATION":53.1578,"RA_OF_ASC_NODE":144.8283,"ARG_OF_PERICENTER":85.1648,"MEAN_ANOMALY":274.9496,"EPHEMERIS_TYPE":0,"CLASSIFICATION_TYPE":"U","NORAD_CAT_ID":64110,"ELEMENT_SET_NO":999,"REV_AT_EPOCH":4199,"BSTAR":0.0010569406,"MEAN_MOTION_DOT":0.00031093,"MEAN_MOTION_DDOT":0},{"OBJECT_NAME":"STARLINK-34148","OBJECT_ID":"2025-110R","EPOCH":"2026-02-12T06:47:00.726720","MEAN_MOTION":15.30226645,"ECCENTRICITY":0.00013901,"INCLINATION":53.1583,"RA_OF_ASC_NODE":144.6975,"ARG_OF_PERICENTER":98.254,"MEAN_ANOMALY":261.8618,"EPHEMERIS_TYPE":0,"CLASSIFICATION_TYPE":"U","NORAD_CAT_ID":64111,"ELEMENT_SET_NO":999,"REV_AT_EPOCH":4199,"BSTAR":0.0015882423,"MEAN_MOTION_DOT":0.00047017,"MEAN_MOTION_DDOT":0},{"OBJECT_NAME":"STARLINK-34136","OBJECT_ID":"2025-110S","EPOCH":"2026-02-12T06:56:09.480768","MEAN_MOTION":15.3016925,"ECCENTRICITY":0.00014937,"INCLINATION":53.1584,"RA_OF_ASC_NODE":144.7383,"ARG_OF_PERICENTER":111.6654,"MEAN_ANOMALY":248.4506,"EPHEMERIS_TYPE":0,"CLASSIFICATION_TYPE":"U","NORAD_CAT_ID":64112,"ELEMENT_SET_NO":999,"REV_AT_EPOCH":4199,"BSTAR":0.00079979664,"MEAN_MOTION_DOT":0.00023381,"MEAN_MOTION_DDOT":0},{"OBJECT_NAME":"STARLINK-33839","OBJECT_ID":"2025-110T","EPOCH":"2026-02-11T13:23:18.491424","MEAN_MOTION":15.30219338,"ECCENTRICITY":0.00011226,"INCLINATION":53.1586,"RA_OF_ASC_NODE":147.9942,"ARG_OF_PERICENTER":93.2171,"MEAN_ANOMALY":266.8958,"EPHEMERIS_TYPE":0,"CLASSIFICATION_TYPE":"U","NORAD_CAT_ID":64113,"ELEMENT_SET_NO":999,"REV_AT_EPOCH":4188,"BSTAR":0.0008850496,"MEAN_MOTION_DOT":0.00025961,"MEAN_MOTION_DDOT":0},{"OBJECT_NAME":"STARLINK-34064","OBJECT_ID":"2025-110U","EPOCH":"2026-02-12T07:06:45.905760","MEAN_MOTION":15.30221051,"ECCENTRICITY":0.00015053,"INCLINATION":53.1575,"RA_OF_ASC_NODE":144.7841,"ARG_OF_PERICENTER":104.0328,"MEAN_ANOMALY":256.084,"EPHEMERIS_TYPE":0,"CLASSIFICATION_TYPE":"U","NORAD_CAT_ID":64114,"ELEMENT_SET_NO":999,"REV_AT_EPOCH":4199,"BSTAR":0.001170084,"MEAN_MOTION_DOT":0.00034479,"MEAN_MOTION_DDOT":0},{"OBJECT_NAME":"STARLINK-34067","OBJECT_ID":"2025-110V","EPOCH":"2026-02-12T06:28:46.618464","MEAN_MOTION":15.30218026,"ECCENTRICITY":0.0001637,"INCLINATION":53.1598,"RA_OF_ASC_NODE":144.6202,"ARG_OF_PERICENTER":78.9592,"MEAN_ANOMALY":281.1592,"EPHEMERIS_TYPE":0,"CLASSIFICATION_TYPE":"U","NORAD_CAT_ID":64115,"ELEMENT_SET_NO":999,"REV_AT_EPOCH":4199,"BSTAR":0.00096740604,"MEAN_MOTION_DOT":0.00028418,"MEAN_MOTION_DDOT":0},{"OBJECT_NAME":"STARLINK-34080","OBJECT_ID":"2025-110W","EPOCH":"2026-02-12T06:33:20.055456","MEAN_MOTION":15.30221525,"ECCENTRICITY":0.0001445,"INCLINATION":53.1595,"RA_OF_ASC_NODE":144.637,"ARG_OF_PERICENTER":99.338,"MEAN_ANOMALY":260.7784,"EPHEMERIS_TYPE":0,"CLASSIFICATION_TYPE":"U","NORAD_CAT_ID":64116,"ELEMENT_SET_NO":999,"REV_AT_EPOCH":4198,"BSTAR":0.0012694099,"MEAN_MOTION_DOT":0.00037452,"MEAN_MOTION_DDOT":0},{"OBJECT_NAME":"STARLINK-34122","OBJECT_ID":"2025-110X","EPOCH":"2026-02-12T06:24:13.068288","MEAN_MOTION":15.30215277,"ECCENTRICITY":0.00016235,"INCLINATION":53.1604,"RA_OF_ASC_NODE":144.5999,"ARG_OF_PERICENTER":80.9667,"MEAN_ANOMALY":279.1517,"EPHEMERIS_TYPE":0,"CLASSIFICATION_TYPE":"U","NORAD_CAT_ID":64117,"ELEMENT_SET_NO":999,"REV_AT_EPOCH":4199,"BSTAR":0.0009052589,"MEAN_MOTION_DOT":0.00026561,"MEAN_MOTION_DDOT":0}]
