STARLINK-34104          
1 64102U 25110G   26043.30058448  .00033080  00000+0  11234-2 0  9995
2 64102  53.1585 144.8159 0001764 125.9892 234.1273 15.30217275 41996
STARLINK-34179          
1 64103U 25110H   26042.60006559  .00035291  00000+0  11982-2 0  9990
2 64103  53.1589 148.2616 0001139  83.0129 277.1001 15.30195704 41886
STARLINK-34176          
1 64104U 25110J   26042.52842691  .00031465  00000+0  10685-2 0  9995
2 64104  53.1587 148.5291 0001153 111.5684 248.5440 15.30244587 41878
STARLINK-33949          
1 64105U 25110K   26043.30903062  .00025768  00000+0  87885-3 0  9999
2 64105  53.1566 144.8644 0001085  88.2875 271.8250 15.30209354 41997
STARLINK-33970          
1 64106U 25110L   26043.29953128  .00036926  00000+0  12522-2 0  9999
2 64106  53.1572 144.8042 0001494 123.8065 236.3078 15.30213021 41998
STARLINK-33912          
1 64107U 25110M   26043.29530961  .00035898  00000+0  12175-2 0  9997
2 64107  53.1576 144.7804 0001587 110.7816 249.3355 15.30222389 41999
STARLINK-34156          
1 64108U 25110N   26043.28579347  .00052802  00000+0  17783-2 0  9992
2 64108  53.1578 144.7174 0001239  98.6862 261.4280 15.30271602 41995
STARLINK-34124          
1 64109U 25110P   26043.29216534  .00033096  00000+0  11246-2 0  9992
2 64109  53.1581 144.7588 0001140  73.8299 286.2827 15.30198454 41994
STARLINK-34145          
1 64110U 25110Q   26043.30269691  .00031093  00000+0  10569-2 0  9990
2 64110  53.1578 144.8283 0001259  85.1648 274.9496 15.30218602 41994
STARLINK-34148          
1 64111U 25110R   26043.28264730  .00047017  00000+0  15882-2 0  9993
2 64111  53.1583 144.6975 0001390  98.2540 261.8618 15.30226645 41996
STARLINK-34136          
1 64112U 25110S   26043.28899862  .00023381  00000+0  79980-3 0  9992
2 64112  53.1584 144.7383 0001493 111.6654 248.4506 15.30169250 41997
STARLINK-33839          
1 64113U 25110T   26042.55785291  .00025961  00000+0  88505-3 0  9991
2 64113  53.1586 147.9942 0001122  93.2171 266.8958 15.30219338 41880
STARLINK-34064          
1 64114U 25110U   26043.29636465  .00034479  00000+0  11701-2 0  9999
2 64114  53.1575 144.7841 0001505 104.0328 256.0840 15.30221051 41990
STARLINK-34067          
1 64115U 25110V   26043.26998401  .00028418  00000+0  96741-3 0  9992
2 64115  53.1598 144.6202 0001637  78.9592 281.1592 15.30218026 41995
STARLINK-34080          
1 64116U 25110W   26043.27314879  .00037452  00000+0  12694-2 0  9997
2 64116  53.1595 144.6370 0001445  99.3380 260.7784 15.30221525 41981
STARLINK-34122          
1 64117U 25110X   26043.26681792  .00026561  00000+0  90526-3 0  9998
2 64117  53.1604 144.5999 0001623  80.9667 279.1517 15.30215277 41997
